{"type": "FeatureCollection", "features": [ {"type": "Feature", "properties": {"norad_id": 17070, "name": "POLAR BEAR", "group": "nnss", "lat": 21.0087744236615, "lon": 4.041212127651976, "alt_km": 951.5405386212178, "timestamp": "2025-12-02T08:59:32.982696+00:00", "meta": {"OBJECT_NAME": "POLAR BEAR", "OBJECT_ID": "1986-088A", "EPOCH": "2025-12-02T03:32:25.117152", "MEAN_MOTION": 13.75247416, "ECCENTRICITY": 0.0040177, "INCLINATION": 89.6181, "RA_OF_ASC_NODE": 184.1971, "ARG_OF_PERICENTER": 150.1394, "MEAN_ANOMALY": 324.6411, "EPHEMERIS_TYPE": 0, "CLASSIFICATION_TYPE": "U", "NORAD_CAT_ID": 17070, "ELEMENT_SET_NO": 999, "REV_AT_EPOCH": 95833, "BSTAR": 0.0001285, "MEAN_MOTION_DOT": 1.35e-06, "MEAN_MOTION_DDOT": 0}, "tle": {"line1": "1 17070U 86088A   25336.14751293  .00000135  00000+0  12850-3 0  9993", "line2": "2 17070  89.6181 184.1971 0040177 150.1394 324.6411 13.75247416958332"}}, "geometry": {"type": "Point", "coordinates": [4.041212127651976, 21.0087744236615]}}, {"type": "Feature", "properties": {"norad_id": 18361, "name": "OSCAR 27", "group": "nnss", "lat": 73.65683947790414, "lon": -99.83851556121405, "alt_km": 1148.4215636034905, "timestamp": "2025-12-02T08:59:32.982706+00:00", "meta": {"OBJECT_NAME": "OSCAR 27", "OBJECT_ID": "1987-080A", "EPOCH": "2025-12-01T19:57:28.811808", "MEAN_MOTION": 13.44903069, "ECCENTRICITY": 0.0102278, "INCLINATION": 90.3742, "RA_OF_ASC_NODE": 78.8642, "ARG_OF_PERICENTER": 255.4763, "MEAN_ANOMALY": 103.5022, "EPHEMERIS_TYPE": 0, "CLASSIFICATION_TYPE": "U", "NORAD_CAT_ID": 18361, "ELEMENT_SET_NO": 999, "REV_AT_EPOCH": 87410, "BSTAR": 0.00018081, "MEAN_MOTION_DOT": 1.17e-06, "MEAN_MOTION_DDOT": 0}, "tle": {"line1": "1 18361U 87080A   25335.83158347  .00000117  00000+0  18081-3 0  9998", "line2": "2 18361  90.3742  78.8642 0102278 255.4763 103.5022 13.44903069874105"}}, "geometry": {"type": "Point", "coordinates": [-99.83851556121405, 73.65683947790414]}}, {"type": "Feature", "properties": {"norad_id": 18362, "name": "OSCAR 29", "group": "nnss", "lat": 44.45392447192396, "lon": -100.28876751480816, "alt_km": 1149.6744803621432, "timestamp": "2025-12-02T08:59:32.982716+00:00", "meta": {"OBJECT_NAME": "OSCAR 29", "OBJECT_ID": "1987-080B", "EPOCH": "2025-12-01T20:23:05.898048", "MEAN_MOTION": 13.44445223, "ECCENTRICITY": 0.0103665, "INCLINATION": 90.3755, "RA_OF_ASC_NODE": 79.3229, "ARG_OF_PERICENTER": 278.8683, "MEAN_ANOMALY": 196.3233, "EPHEMERIS_TYPE": 0, "CLASSIFICATION_TYPE": "U", "NORAD_CAT_ID": 18362, "ELEMENT_SET_NO": 999, "REV_AT_EPOCH": 87363, "BSTAR": 0.00015139, "MEAN_MOTION_DOT": 9.8e-07, "MEAN_MOTION_DDOT": 0}, "tle": {"line1": "1 18362U 87080B   25335.84937382  .00000098  00000+0  15139-3 0  9993", "line2": "2 18362  90.3755  79.3229 0103665 278.8683 196.3233 13.44445223873632"}}, "geometry": {"type": "Point", "coordinates": [-100.28876751480816, 44.45392447192396]}}, {"type": "Feature", "properties": {"norad_id": 19070, "name": "OSCAR 23", "group": "nnss", "lat": 8.76965105747036, "lon": -163.87925758838256, "alt_km": 1043.3485078867725, "timestamp": "2025-12-02T08:59:32.982726+00:00", "meta": {"OBJECT_NAME": "OSCAR 23", "OBJECT_ID": "1988-033A", "EPOCH": "2025-12-02T02:58:36.869376", "MEAN_MOTION": 13.27784639, "ECCENTRICITY": 0.0188659, "INCLINATION": 90.3226, "RA_OF_ASC_NODE": 16.0631, "ARG_OF_PERICENTER": 209.4907, "MEAN_ANOMALY": 205.5212, "EPHEMERIS_TYPE": 0, "CLASSIFICATION_TYPE": "U", "NORAD_CAT_ID": 19070, "ELEMENT_SET_NO": 999, "REV_AT_EPOCH": 82112, "BSTAR": 0.00021489, "MEAN_MOTION_DOT": 1.14e-06, "MEAN_MOTION_DDOT": 0}, "tle": {"line1": "1 19070U 88033A   25336.12403784  .00000114  00000+0  21489-3 0  9999", "line2": "2 19070  90.3226  16.0631 0188659 209.4907 205.5212 13.27784639821127"}}, "geometry": {"type": "Point", "coordinates": [-163.87925758838256, 8.76965105747036]}}, {"type": "Feature", "properties": {"norad_id": 19071, "name": "OSCAR 32", "group": "nnss", "lat": -81.36809924406417, "lon": 18.330363241998, "alt_km": 1142.2172483635195, "timestamp": "2025-12-02T08:59:32.982736+00:00", "meta": {"OBJECT_NAME": "OSCAR 32", "OBJECT_ID": "1988-033B", "EPOCH": "2025-12-02T04:19:01.015104", "MEAN_MOTION": 13.27951754, "ECCENTRICITY": 0.0187479, "INCLINATION": 90.3228, "RA_OF_ASC_NODE": 16.1961, "ARG_OF_PERICENTER": 196.1591, "MEAN_ANOMALY": 229.564, "EPHEMERIS_TYPE": 0, "CLASSIFICATION_TYPE": "U", "NORAD_CAT_ID": 19071, "ELEMENT_SET_NO": 999, "REV_AT_EPOCH": 82125, "BSTAR": 0.00016987, "MEAN_MOTION_DOT": 9.2e-07, "MEAN_MOTION_DDOT": 0}, "tle": {"line1": "1 19071U 88033B   25336.17987286  .00000092  00000+0  16987-3 0  9991", "line2": "2 19071  90.3228  16.1961 0187479 196.1591 229.5640 13.27951754821256"}}, "geometry": {"type": "Point", "coordinates": [18.330363241998, -81.36809924406417]}}, {"type": "Feature", "properties": {"norad_id": 19223, "name": "NOVA 2", "group": "nnss", "lat": -59.69341206703288, "lon": 78.26345752135428, "alt_km": 1186.5792763078598, "timestamp": "2025-12-02T08:59:32.982746+00:00", "meta": {"OBJECT_NAME": "NOVA 2", "OBJECT_ID": "1988-052A", "EPOCH": "2025-12-02T01:05:17.185056", "MEAN_MOTION": 13.22933826, "ECCENTRICITY": 0.0031437, "INCLINATION": 89.9873, "RA_OF_ASC_NODE": 78.2856, "ARG_OF_PERICENTER": 45.6873, "MEAN_ANOMALY": 127.3912, "EPHEMERIS_TYPE": 0, "CLASSIFICATION_TYPE": "U", "NORAD_CAT_ID": 19223, "ELEMENT_SET_NO": 999, "REV_AT_EPOCH": 80806, "BSTAR": 0.00013196, "MEAN_MOTION_DOT": 6.4e-07, "MEAN_MOTION_DDOT": 0}, "tle": {"line1": "1 19223U 88052A   25336.04533779  .00000064  00000+0  13196-3 0  9999", "line2": "2 19223  89.9873  78.2856 0031437  45.6873 127.3912 13.22933826808066"}}, "geometry": {"type": "Point", "coordinates": [78.26345752135428, -59.69341206703288]}}, {"type": "Feature", "properties": {"norad_id": 19419, "name": "OSCAR 25", "group": "nnss", "lat": 4.284503760692151, "lon": 20.20697171295094, "alt_km": 1099.3029336166137, "timestamp": "2025-12-02T08:59:32.982773+00:00", "meta": {"OBJECT_NAME": "OSCAR 25", "OBJECT_ID": "1988-074A", "EPOCH": "2025-12-02T03:54:17.559072", "MEAN_MOTION": 13.42620129, "ECCENTRICITY": 0.0094205, "INCLINATION": 90.0358, "RA_OF_ASC_NODE": 20.2089, "ARG_OF_PERICENTER": 276.5776, "MEAN_ANOMALY": 142.7359, "EPHEMERIS_TYPE": 0, "CLASSIFICATION_TYPE": "U", "NORAD_CAT_ID": 19419, "ELEMENT_SET_NO": 999, "REV_AT_EPOCH": 82498, "BSTAR": 0.00021074, "MEAN_MOTION_DOT": 1.31e-06, "MEAN_MOTION_DDOT": 0}, "tle": {"line1": "1 19419U 88074A   25336.16270323  .00000131  00000+0  21074-3 0  9995", "line2": "2 19419  90.0358  20.2089 0094205 276.5776 142.7359 13.42620129824984"}}, "geometry": {"type": "Point", "coordinates": [20.20697171295094, 4.284503760692151]}}, {"type": "Feature", "properties": {"norad_id": 19420, "name": "OSCAR 31", "group": "nnss", "lat": -68.17791934735116, "lon": -159.53546019270857, "alt_km": 1042.8291609995058, "timestamp": "2025-12-02T08:59:32.982785+00:00", "meta": {"OBJECT_NAME": "OSCAR 31", "OBJECT_ID": "1988-074B", "EPOCH": "2025-12-02T04:29:46.787712", "MEAN_MOTION": 13.42581908, "ECCENTRICITY": 0.0092425, "INCLINATION": 90.0374, "RA_OF_ASC_NODE": 20.5573, "ARG_OF_PERICENTER": 270.6149, "MEAN_ANOMALY": 152.9738, "EPHEMERIS_TYPE": 0, "CLASSIFICATION_TYPE": "U", "NORAD_CAT_ID": 19420, "ELEMENT_SET_NO": 999, "REV_AT_EPOCH": 82509, "BSTAR": 0.00017991, "MEAN_MOTION_DOT": 1.13e-06, "MEAN_MOTION_DDOT": 0}, "tle": {"line1": "1 19420U 88074B   25336.18734708  .00000113  00000+0  17991-3 0  9994", "line2": "2 19420  90.0374  20.5573 0092425 270.6149 152.9738 13.42581908825094"}}, "geometry": {"type": "Point", "coordinates": [-159.53546019270857, -68.17791934735116]}}]}